STARLINK-31436          
1 59019U 24036X   26068.33634908 -.00000555  00000+0 -66329-5 0  9994
2 59019  53.1604  80.1548 0001238 101.6969 258.4171 15.30185538115269
GLOBAL-34               
1 68098U 26043A   26068.47466435  .00014018  00000+0  45822-3 0  9994
2 68098  42.0215  76.7399 0006884 289.2632  70.7460 15.31488019   538
